{
    "links": {
        "self": "http://www.neowsapp.com/rest/v1/neo/3765709?api_key=iIulBulltgU6a56xZRHN4H3l9WmuAYTsLGpBGhQ2"
    },
    "id": "3765709",
    "neo_reference_id": "3765709",
    "name": "(2016 XL18)",
    "designation": "2016 XL18",
    "nasa_jpl_url": "http://ssd.jpl.nasa.gov/sbdb.cgi?sstr=3765709",
    "absolute_magnitude_h": 26.0,
    "estimated_diameter": {
        "kilometers": {
            "estimated_diameter_min": 0.0167708462,
            "estimated_diameter_max": 0.0375007522
        },
        "meters": {
            "estimated_diameter_min": 16.7708462163,
            "estimated_diameter_max": 37.5007521798
        },
        "miles": {
            "estimated_diameter_min": 0.0104209175,
            "estimated_diameter_max": 0.0233018799
        },
        "feet": {
            "estimated_diameter_min": 55.0224631002,
            "estimated_diameter_max": 123.0339677816
        }
    },
    "is_potentially_hazardous_asteroid": false,
    "close_approach_data": [
        {
            "close_approach_date": "2016-11-29",
            "close_approach_date_full": "2016-Nov-29 22:01",
            "epoch_date_close_approach": 1480456860000,
            "relative_velocity": {
                "kilometers_per_second": "7.5124119953",
                "kilometers_per_hour": "27044.6831831475",
                "miles_per_hour": "16804.5143923285"
            },
            "miss_distance": {
                "astronomical": "0.0371933621",
                "lunar": "14.4682178569",
                "kilometers": "5564047.748298727",
                "miles": "3457338.9518553526"
            },
            "orbiting_body": "Earth"
        },
        {
            "close_approach_date": "2027-12-13",
            "close_approach_date_full": "2027-Dec-13 10:53",
            "epoch_date_close_approach": 1828695180000,
            "relative_velocity": {
                "kilometers_per_second": "12.1957956204",
                "kilometers_per_hour": "43904.8642335581",
                "miles_per_hour": "27280.7752233461"
            },
            "miss_distance": {
                "astronomical": "0.2007263487",
                "lunar": "78.0825496443",
                "kilometers": "30028234.218397269",
                "miles": "18658679.5288455522"
            },
            "orbiting_body": "Earth"
        },
        {
            "close_approach_date": "2035-08-14",
            "close_approach_date_full": "2035-Aug-14 00:08",
            "epoch_date_close_approach": 2070662880000,
            "relative_velocity": {
                "kilometers_per_second": "16.7845259973",
                "kilometers_per_hour": "60424.2935901403",
                "miles_per_hour": "37545.3062032736"
            },
            "miss_distance": {
                "astronomical": "0.4143075905",
                "lunar": "161.1656527045",
                "kilometers": "61979533.063632235",
                "miles": "38512296.006845443"
            },
            "orbiting_body": "Earth"
        }
    ],
    "orbital_data": {
        "orbit_id": "6",
        "orbit_determination_date": "2018-02-10 07:08:35",
        "first_observation_date": "2016-11-29",
        "last_observation_date": "2016-12-18",
        "data_arc_in_days": 19,
        "observations_used": 31,
        "orbit_uncertainty": "7",
        "minimum_orbit_intersection": ".0324392",
        "jupiter_tisserand_invariant": "4.811",
        "epoch_osculation": "2459000.5",
        "eccentricity": ".2845828889422794",
        "semi_major_axis": "1.353930332143894",
        "inclination": "8.380236911709611",
        "ascending_node_longitude": "74.75042575055944",
        "orbital_period": "575.4305347709434",
        "perihelion_distance": ".9686249267958044",
        "perihelion_argument": "315.8898096689763",
        "aphelion_distance": "1.739235737491983",
        "perihelion_time": "2458841.637517835902",
        "mean_anomaly": "99.38731110583215",
        "mean_motion": ".6256185208233729",
        "equinox": "J2000",
        "orbit_class": {
            "orbit_class_type": "APO",
            "orbit_class_description": "Near-Earth asteroid orbits which cross the Earth’s orbit similar to that of 1862 Apollo",
            "orbit_class_range": "a (semi-major axis) > 1.0 AU; q (perihelion) < 1.017 AU"
        }
    },
    "is_sentry_object": false
}